SENTINEL-6              
1 46984U 20086A   24182.73879513 -.00000022  00000+0  16849-3 0  9992
2 46984  66.0387 183.1232 0007960 270.2113  89.7990 12.80929524168684
